$$SOE
2460154.500000000, A.D. 2023-Jul-29 00:00:00.0000, 3.248742590235146E+08, 2.503312091070212E+08, -1.977720689884208E+07,
2460161.500000000, A.D. 2023-Aug-05 00:00:00.0000, 3.183925422364644E+08, 2.594418980283850E+08, -1.984024142764840E+07,
2460168.500000000, A.D. 2023-Aug-12 00:00:00.0000, 3.116888113417960E+08, 2.683715755162227E+08, -1.988941627969158E+07,
2460175.500000000, A.D. 2023-Aug-19 00:00:00.0000, 3.047686875191770E+08, 2.771148137202275E+08, -1.992475720922352E+07,
2460182.500000000, A.D. 2023-Aug-26 00:00:00.0000, 2.976379193424423E+08, 2.856663843041332E+08, -1.994630109765233E+07,
2460189.500000000, A.D. 2023-Sep-02 00:00:00.0000, 2.903023744272655E+08, 2.940212608685462E+08, -1.995409572798333E+07,
2460196.500000000, A.D. 2023-Sep-09 00:00:00.0000, 2.827680311209388E+08, 3.021746208612118E+08, -1.994819955828352E+07,
2460203.500000000, A.D. 2023-Sep-16 00:00:00.0000, 2.750409704236119E+08, 3.101218469267747E+08, -1.992868151546820E+07,
2460210.500000000, A.D. 2023-Sep-23 00:00:00.0000, 2.671273685783926E+08, 3.178585279941333E+08, -1.989562082543661E+07,
2460217.500000000, A.D. 2023-Sep-30 00:00:00.0000, 2.590334900109136E+08, 3.253804613018804E+08, -1.984910675242813E+07,
2460224.500000000, A.D. 2023-Oct-07 00:00:00.0000, 2.507656782797132E+08, 3.326836548271661E+08, -1.978923807672556E+07,
2460231.500000000, A.D. 2023-Oct-14 00:00:00.0000, 2.423303460910992E+08, 3.397643268184281E+08, -1.971612267731020E+07,
2460238.500000000, A.D. 2023-Oct-21 00:00:00.0000, 2.337339676236233E+08, 3.466189040488628E+08, -1.962987738575478E+07,
2460245.500000000, A.D. 2023-Oct-28 00:00:00.0000, 2.249830717494769E+08, 3.532440210622129E+08, -1.953062779662178E+07,
2460252.500000000, A.D. 2023-Nov-04 00:00:00.0000, 2.160842349119674E+08, 3.596365196557533E+08, -1.941850798296511E+07,
2460259.500000000, A.D. 2023-Nov-11 00:00:00.0000, 2.070440738476821E+08, 3.657934480188589E+08, -1.929366018283904E+07,
2460266.500000000, A.D. 2023-Nov-18 00:00:00.0000, 1.978692383849782E+08, 3.717120594806423E+08, -1.915623448300511E+07,
2460273.500000000, A.D. 2023-Nov-25 00:00:00.0000, 1.885664044027495E+08, 3.773898109051259E+08, -1.900638850544323E+07,
2460280.500000000, A.D. 2023-Dec-02 00:00:00.0000, 1.791422669863457E+08, 3.828243607371914E+08, -1.884428710080099E+07,
2460287.500000000, A.D. 2023-Dec-09 00:00:00.0000, 1.696035338645145E+08, 3.880135666546680E+08, -1.867010206128365E+07,
2460294.500000000, A.D. 2023-Dec-16 00:00:00.0000, 1.599569194191093E+08, 3.929554828544905E+08, -1.848401187893848E+07,
2460301.500000000, A.D. 2023-Dec-23 00:00:00.0000, 1.502091396199701E+08, 3.976483576773055E+08, -1.828620152599379E+07,
2460308.500000000, A.D. 2023-Dec-30 00:00:00.0000, 1.403669065493494E+08, 4.020906326354470E+08, -1.807686204963322E+07,
2460315.500000000, A.D. 2024-Jan-06 00:00:00.0000, 1.304369207448528E+08, 4.062809404960607E+08, -1.785619001200415E+07,
2460322.500000000, A.D. 2024-Jan-13 00:00:00.0000, 1.204258645332746E+08, 4.102181006296648E+08, -1.762438721464959E+07,
2460329.500000000, A.D. 2024-Jan-20 00:00:00.0000, 1.103403975825149E+08, 4.139011147268990E+08, -1.738166056881759E+07,
2460336.500000000, A.D. 2024-Jan-27 00:00:00.0000, 1.001871526448448E+08, 4.173291635483380E+08, -1.712822187309849E+07,
2460343.500000000, A.D. 2024-Feb-03 00:00:00.0000, 8.997273106222898E+07, 4.205016037707630E+08, -1.686428753705865E+07,
2460350.500000000, A.D. 2024-Feb-10 00:00:00.0000, 7.970369830943696E+07, 4.234179646514169E+08, -1.659007830056518E+07,
2460357.500000000, A.D. 2024-Feb-17 00:00:00.0000, 6.938657971157624E+07, 4.260779445305777E+08, -1.630581896133208E+07,
2460364.500000000, A.D. 2024-Feb-24 00:00:00.0000, 5.902785636935249E+07, 4.284814071991177E+08, -1.601173811317614E+07,
2460371.500000000, A.D. 2024-Mar-02 00:00:00.0000, 4.863396131819757E+07, 4.306283781098700E+08, -1.570806790065867E+07,
2460378.500000000, A.D. 2024-Mar-09 00:00:00.0000, 3.821127605626875E+07, 4.325190403807903E+08, -1.539504380824366E+07,
2460385.500000000, A.D. 2024-Mar-16 00:00:00.0000, 2.776612783220675E+07, 4.341537307979104E+08, -1.507290450433144E+07,
2460392.500000000, A.D. 2024-Mar-23 00:00:00.0000, 1.730478758470662E+07, 4.355329369383698E+08, -1.474189164038906E+07,
2460399.500000000, A.D. 2024-Mar-30 00:00:00.0000, 6.833466289660424E+06, 4.366572953961459E+08, -1.440224940215746E+07,
2460406.500000000, A.D. 2024-Apr-06 00:00:00.0000, -3.641690034244723E+06, 4.375275877479357E+08, -1.405422411130190E+07,
2460413.500000000, A.D. 2024-Apr-13 00:00:00.0000, -1.411460311849406E+07, 4.381447351043860E+08, -1.369806413468108E+07,
2460420.500000000, A.D. 2024-Apr-20 00:00:00.0000, -2.457926399342525E+07, 4.385097939344292E+08, -1.333401979564273E+07,
2460427.500000000, A.D. 2024-Apr-27 00:00:00.0000, -3.502973481405706E+07, 4.386239526081637E+08, -1.296234319416073E+07,
2460434.500000000, A.D. 2024-May-04 00:00:00.0000, -4.546015088118969E+07, 4.384885279606906E+08, -1.258328800117272E+07,
2460441.500000000, A.D. 2024-May-11 00:00:00.0000, -5.586472262587573E+07, 4.381049617813872E+08, -1.219710925712949E+07,
2460448.500000000, A.D. 2024-May-18 00:00:00.0000, -6.623773748166239E+07, 4.374748172565195E+08, -1.180406318034261E+07,
2460455.500000000, A.D. 2024-May-25 00:00:00.0000, -7.657356162623034E+07, 4.365997753640768E+08, -1.140440698777920E+07,
2460462.500000000, A.D. 2024-Jun-01 00:00:00.0000, -8.686664153879000E+07, 4.354816311690223E+08, -1.099839873824677E+07,
2460469.500000000, A.D. 2024-Jun-08 00:00:00.0000, -9.711150513286041E+07, 4.341222900011103E+08, -1.058629722215766E+07,
2460476.500000000, A.D. 2024-Jun-15 00:00:00.0000, -1.073027620707165E+08, 4.325237640649750E+08, -1.016836188966846E+07,
2460483.500000000, A.D. 2024-Jun-22 00:00:00.0000, -1.174351042699731E+08, 4.306881706621746E+08, -9.744852628741831E+06,
2460490.500000000, A.D. 2024-Jun-29 00:00:00.0000, -1.275033087272840E+08, 4.286177302065105E+08, -9.316029346991897E+06,
2460497.500000000, A.D. 2024-Jul-06 00:00:00.0000, -1.375022400190672E+08, 4.263147615586071E+08, -8.882151800885707E+06,
2460504.500000000, A.D. 2024-Jul-13 00:00:00.0000, -1.474268505396588E+08, 4.237816775042492E+08, -8.443479619646132E+06,
2460511.500000000, A.D. 2024-Jul-20 00:00:00.0000, -1.572721804708898E+08, 4.210209815301187E+08, -8.000272247906923E+06,
2460518.500000000, A.D. 2024-Jul-27 00:00:00.0000, -1.670333581453027E+08, 4.180352649412632E+08, -7.552788825386494E+06,
2460525.500000000, A.D. 2024-Aug-03 00:00:00.0000, -1.767056005358059E+08, 4.148272039484497E+08, -7.101288059278905E+06,
2460532.500000000, A.D. 2024-Aug-10 00:00:00.0000, -1.862842137110160E+08, 4.113995567236149E+08, -6.646028105030477E+06,
2460539.500000000, A.D. 2024-Aug-17 00:00:00.0000, -1.957645932135037E+08, 4.077551604468387E+08, -6.187266458158642E+06,
2460546.500000000, A.D. 2024-Aug-24 00:00:00.0000, -2.051422243376087E+08, 4.038969283233796E+08, -5.725259861549973E+06,
2460553.500000000, A.D. 2024-Aug-31 00:00:00.0000, -2.144126821958294E+08, 3.998278465094775E+08, -5.260264243901581E+06,
2460560.500000000, A.D. 2024-Sep-07 00:00:00.0000, -2.235716312131041E+08, 3.955509710731136E+08, -4.792534712525934E+06,
2460567.500000000, A.D. 2024-Sep-14 00:00:00.0000, -2.326148239690422E+08, 3.910694259855304E+08, -4.322325526997834E+06,
2460574.500000000, A.D. 2024-Sep-21 00:00:00.0000, -2.415381014223944E+08, 3.863864025572326E+08, -3.849889834026605E+06,
2460581.500000000, A.D. 2024-Sep-28 00:00:00.0000, -2.503373950083935E+08, 3.815051570914018E+08, -3.375479382688969E+06,
2460588.500000000, A.D. 2024-Oct-05 00:00:00.0000, -2.590087269419853E+08, 3.764290067532126E+08, -2.899344556098372E+06,
2460595.500000000, A.D. 2024-Oct-12 00:00:00.0000, -2.675482090937104E+08, 3.711613266337450E+08, -2.421734442761615E+06,
2460602.500000000, A.D. 2024-Oct-19 00:00:00.0000, -2.759520421942196E+08, 3.657055477390525E+08, -1.942896809289724E+06,
2460609.500000000, A.D. 2024-Oct-26 00:00:00.0000, -2.842165154029054E+08, 3.600651551028247E+08, -1.463078036874130E+06,
2460616.500000000, A.D. 2024-Nov-02 00:00:00.0000, -2.923380059864786E+08, 3.542436858730696E+08, -9.825230570259839E+05,
2460623.500000000, A.D. 2024-Nov-09 00:00:00.0000, -3.003129790142754E+08, 3.482447273924042E+08, -5.014752935223132E+05,
2460630.500000000, A.D. 2024-Nov-16 00:00:00.0000, -3.081379870476874E+08, 3.420719152712225E+08, -2.017661269800365E+04,
2460637.500000000, A.D. 2024-Nov-23 00:00:00.0000, -3.158096697799066E+08, 3.357289314028033E+08, 4.611327097635418E+05,
2460644.500000000, A.D. 2024-Nov-30 00:00:00.0000, -3.233247534206184E+08, 3.292195018765038E+08, 9.422139831967056E+05,
2460651.500000000, A.D. 2024-Dec-07 00:00:00.0000, -3.306800494090835E+08, 3.225473952081670E+08, 1.422830053656712E+06,
2460658.500000000, A.D. 2024-Dec-14 00:00:00.0000, -3.378724531476846E+08, 3.157164221102660E+08, 1.902745376395255E+06,
2460665.500000000, A.D. 2024-Dec-21 00:00:00.0000, -3.448989450784134E+08, 3.087304355608175E+08, 2.381726320527256E+06,
2460672.500000000, A.D. 2024-Dec-28 00:00:00.0000, -3.517565921313437E+08, 3.015933282033747E+08, 2.859541282793641E+06,
2460679.500000000, A.D. 2025-Jan-04 00:00:00.0000, -3.584425469484732E+08, 2.943090294507612E+08, 3.335960566991508E+06,
2460686.500000000, A.D. 2025-Jan-11 00:00:00.0000, -3.649540467080841E+08, 2.868815039497938E+08, 3.810756332123116E+06,
2460693.500000000, A.D. 2025-Jan-18 00:00:00.0000, -3.712884124702508E+08, 2.793147504880413E+08, 4.283702618512973E+06,
2460700.500000000, A.D. 2025-Jan-25 00:00:00.0000, -3.774430488018876E+08, 2.716128008673714E+08, 4.754575391161367E+06,
2460707.500000000, A.D. 2025-Feb-01 00:00:00.0000, -3.834154434933668E+08, 2.637797187126795E+08, 5.223152580921397E+06,
2460714.500000000, A.D. 2025-Feb-08 00:00:00.0000, -3.892031673098174E+08, 2.558195982339288E+08, 5.689214120124891E+06,
2460721.500000000, A.D. 2025-Feb-15 00:00:00.0000, -3.948038737495142E+08, 2.477365629200052E+08, 6.152541968686044E+06,
$$EOE